ARIANE 5 R/B            
1 28499U 04049H   25303.93180526  .00001293  00000+0  14947-3 0  9998
2 28499  98.2508 102.6890 0085759  52.1342 308.7590 14.84882579126538
CZ-2D R/B               
1 28738U 05024B   25303.51595634  .00035856  00000+0  63173-3 0  9999
2 28738  97.3685 309.9142 0007714 125.2152 234.9823 15.50317773119554
ALOS (DAICHI)           
1 28931U 06002A   25303.86266948  .00002546  00000+0  43994-3 0  9991
2 28931  98.1018 255.6750 0001674  54.0558 306.0802 14.69271222 54416
H-2A R/B                
1 28932U 06002B   25303.89103662  .00012740  00000+0  69067-3 0  9994
2 28932  98.2286  75.1905 0055072 323.1946  36.5507 15.13421265 74787
RESURS-DK 1             
1 29228U 06021A   25303.89436882  .00004146  00000+0  24820-3 0  9996
2 29228  69.9333 212.5310 0007150 293.9875  66.0542 15.11809992 67908
CZ-4B R/B               
1 29507U 06046C   25303.58929332  .00007422  00000+0  39254-3 0  9993
2 29507  97.5808 343.8474 0034414   0.8346 359.2937 15.15240447 40333
CZ-2C R/B               
1 31114U 07010B   25303.88329092  .00000205  00000+0  11367-3 0  9999
2 31114  98.3949  58.6974 0058128 312.3905  47.2361 14.20184135961299
COSMO-SKYMED 1          
1 31598U 07023A   25303.96760301  .00003803  00000+0  35050-3 0  9992
2 31598  97.8865 129.0976 0001070  80.7910 279.3431 14.95302560995500
COSMOS 2428             
1 31792U 07029A   25303.90562810 -.00000200  00000+0 -81557-4 0  9997
2 31792  70.9364 115.8065 0001754 114.0115 246.1190 14.12893151945768
SL-16 R/B               
1 31793U 07029B   25303.84462756 -.00000060  00000+0 -60635-5 0  9998
2 31793  70.9739  85.3217 0002439 261.1401 250.8737 14.14803592947008
KORONAS-FOTON           
1 33504U 09003A   25303.75344567  .00018010  00000+0  45265-3 0  9995
2 33504  82.4322  50.5892 0010652 263.0990  96.9044 15.39779646925724
CZ-2C R/B               
1 37731U 11030B   25303.87903883  .00002477  00000+0  32099-3 0  9990
2 37731  97.8337 258.9589 0054488  53.8019 321.3781 14.80669301770884
