CCSDS_OMM_VERS = 2.0
CREATION_DATE  = 
ORIGINATOR     = 

OBJECT_NAME    = ARIANE 5 R/B
OBJECT_ID      = 2004-049H
CENTER_NAME    = EARTH
REF_FRAME      = TEME
TIME_SYSTEM    = UTC
MEAN_ELEMENT_THEORY = SGP/SGP4

EPOCH          = 2025-10-30T22:21:47.974464
MEAN_MOTION    = 14.84882579
ECCENTRICITY   = .00857593
INCLINATION    = 98.2508
RA_OF_ASC_NODE = 102.6890
ARG_OF_PERICENTER = 52.1342
MEAN_ANOMALY   = 308.7590

EPHEMERIS_TYPE = 0
CLASSIFICATION_TYPE = U
NORAD_CAT_ID   = 28499
ELEMENT_SET_NO = 999
REV_AT_EPOCH   = 12653
BSTAR          = .14947341E-3
MEAN_MOTION_DOT = .1293E-4
MEAN_MOTION_DDOT = 0

CCSDS_OMM_VERS = 2.0
CREATION_DATE  = 
ORIGINATOR     = 

OBJECT_NAME    = CZ-2D R/B
OBJECT_ID      = 2005-024B
CENTER_NAME    = EARTH
REF_FRAME      = TEME
TIME_SYSTEM    = UTC
MEAN_ELEMENT_THEORY = SGP/SGP4

EPOCH          = 2025-10-30T12:22:58.627776
MEAN_MOTION    = 15.50317773
ECCENTRICITY   = .0007714
INCLINATION    = 97.3685
RA_OF_ASC_NODE = 309.9142
ARG_OF_PERICENTER = 125.2152
MEAN_ANOMALY   = 234.9823

EPHEMERIS_TYPE = 0
CLASSIFICATION_TYPE = U
NORAD_CAT_ID   = 28738
ELEMENT_SET_NO = 999
REV_AT_EPOCH   = 11955
BSTAR          = .63172695E-3
MEAN_MOTION_DOT = .35856E-3
MEAN_MOTION_DDOT = 0

CCSDS_OMM_VERS = 2.0
CREATION_DATE  = 
ORIGINATOR     = 

OBJECT_NAME    = ALOS (DAICHI)
OBJECT_ID      = 2006-002A
CENTER_NAME    = EARTH
REF_FRAME      = TEME
TIME_SYSTEM    = UTC
MEAN_ELEMENT_THEORY = SGP/SGP4

EPOCH          = 2025-10-30T20:42:14.643072
MEAN_MOTION    = 14.69271222
ECCENTRICITY   = .00016742
INCLINATION    = 98.1018
RA_OF_ASC_NODE = 255.6750
ARG_OF_PERICENTER = 54.0558
MEAN_ANOMALY   = 306.0802

EPHEMERIS_TYPE = 0
CLASSIFICATION_TYPE = U
NORAD_CAT_ID   = 28931
ELEMENT_SET_NO = 999
REV_AT_EPOCH   = 5441
BSTAR          = .43994258E-3
MEAN_MOTION_DOT = .2546E-4
MEAN_MOTION_DDOT = 0

CCSDS_OMM_VERS = 2.0
CREATION_DATE  = 
ORIGINATOR     = 

OBJECT_NAME    = H-2A R/B
OBJECT_ID      = 2006-002B
CENTER_NAME    = EARTH
REF_FRAME      = TEME
TIME_SYSTEM    = UTC
MEAN_ELEMENT_THEORY = SGP/SGP4

EPOCH          = 2025-10-30T21:23:05.563968
MEAN_MOTION    = 15.13421265
ECCENTRICITY   = .00550728
INCLINATION    = 98.2286
RA_OF_ASC_NODE = 75.1905
ARG_OF_PERICENTER = 323.1946
MEAN_ANOMALY   = 36.5507

EPHEMERIS_TYPE = 0
CLASSIFICATION_TYPE = U
NORAD_CAT_ID   = 28932
ELEMENT_SET_NO = 999
REV_AT_EPOCH   = 7478
BSTAR          = .69066907E-3
MEAN_MOTION_DOT = .1274E-3
MEAN_MOTION_DDOT = 0

CCSDS_OMM_VERS = 2.0
CREATION_DATE  = 
ORIGINATOR     = 

OBJECT_NAME    = RESURS-DK 1
OBJECT_ID      = 2006-021A
CENTER_NAME    = EARTH
REF_FRAME      = TEME
TIME_SYSTEM    = UTC
MEAN_ELEMENT_THEORY = SGP/SGP4

EPOCH          = 2025-10-30T21:27:53.466048
MEAN_MOTION    = 15.11809992
ECCENTRICITY   = .00071508
INCLINATION    = 69.9333
RA_OF_ASC_NODE = 212.5310
ARG_OF_PERICENTER = 293.9875
MEAN_ANOMALY   = 66.0542

EPHEMERIS_TYPE = 0
CLASSIFICATION_TYPE = U
NORAD_CAT_ID   = 29228
ELEMENT_SET_NO = 999
REV_AT_EPOCH   = 6790
BSTAR          = .24819953E-3
MEAN_MOTION_DOT = .4146E-4
MEAN_MOTION_DDOT = 0

CCSDS_OMM_VERS = 2.0
CREATION_DATE  = 
ORIGINATOR     = 

OBJECT_NAME    = CZ-4B R/B
OBJECT_ID      = 2006-046C
CENTER_NAME    = EARTH
REF_FRAME      = TEME
TIME_SYSTEM    = UTC
MEAN_ELEMENT_THEORY = SGP/SGP4

EPOCH          = 2025-10-30T14:08:34.942848
MEAN_MOTION    = 15.15240447
ECCENTRICITY   = .00344141
INCLINATION    = 97.5808
RA_OF_ASC_NODE = 343.8474
ARG_OF_PERICENTER = 0.8346
MEAN_ANOMALY   = 359.2937

EPHEMERIS_TYPE = 0
CLASSIFICATION_TYPE = U
NORAD_CAT_ID   = 29507
ELEMENT_SET_NO = 999
REV_AT_EPOCH   = 4033
BSTAR          = .39254266E-3
MEAN_MOTION_DOT = .7422E-4
MEAN_MOTION_DDOT = 0

CCSDS_OMM_VERS = 2.0
CREATION_DATE  = 
ORIGINATOR     = 

OBJECT_NAME    = CZ-2C R/B
OBJECT_ID      = 2007-010B
CENTER_NAME    = EARTH
REF_FRAME      = TEME
TIME_SYSTEM    = UTC
MEAN_ELEMENT_THEORY = SGP/SGP4

EPOCH          = 2025-10-30T21:11:56.335488
MEAN_MOTION    = 14.20184135
ECCENTRICITY   = .00581289
INCLINATION    = 98.3949
RA_OF_ASC_NODE = 58.6974
ARG_OF_PERICENTER = 312.3905
MEAN_ANOMALY   = 47.2361

EPHEMERIS_TYPE = 0
CLASSIFICATION_TYPE = U
NORAD_CAT_ID   = 31114
ELEMENT_SET_NO = 999
REV_AT_EPOCH   = 96129
BSTAR          = .11367008E-3
MEAN_MOTION_DOT = .205E-5
MEAN_MOTION_DDOT = 0

CCSDS_OMM_VERS = 2.0
CREATION_DATE  = 
ORIGINATOR     = 

OBJECT_NAME    = COSMO-SKYMED 1
OBJECT_ID      = 2007-023A
CENTER_NAME    = EARTH
REF_FRAME      = TEME
TIME_SYSTEM    = UTC
MEAN_ELEMENT_THEORY = SGP/SGP4

EPOCH          = 2025-10-30T23:13:20.900064
MEAN_MOTION    = 14.95302560
ECCENTRICITY   = .00010706
INCLINATION    = 97.8865
RA_OF_ASC_NODE = 129.0976
ARG_OF_PERICENTER = 80.7910
MEAN_ANOMALY   = 279.3431

EPHEMERIS_TYPE = 0
CLASSIFICATION_TYPE = U
NORAD_CAT_ID   = 31598
ELEMENT_SET_NO = 999
REV_AT_EPOCH   = 99550
BSTAR          = .3504981E-3
MEAN_MOTION_DOT = .3803E-4
MEAN_MOTION_DDOT = 0

CCSDS_OMM_VERS = 2.0
CREATION_DATE  = 
ORIGINATOR     = 

OBJECT_NAME    = COSMOS 2428
OBJECT_ID      = 2007-029A
CENTER_NAME    = EARTH
REF_FRAME      = TEME
TIME_SYSTEM    = UTC
MEAN_ELEMENT_THEORY = SGP/SGP4

EPOCH          = 2025-10-30T21:44:06.267840
MEAN_MOTION    = 14.12893151
ECCENTRICITY   = .0001754
INCLINATION    = 70.9364
RA_OF_ASC_NODE = 115.8065
ARG_OF_PERICENTER = 114.0115
MEAN_ANOMALY   = 246.1190

EPHEMERIS_TYPE = 0
CLASSIFICATION_TYPE = U
NORAD_CAT_ID   = 31792
ELEMENT_SET_NO = 999
REV_AT_EPOCH   = 94576
BSTAR          = -.81556693E-4
MEAN_MOTION_DOT = -.2E-5
MEAN_MOTION_DDOT = 0

CCSDS_OMM_VERS = 2.0
CREATION_DATE  = 
ORIGINATOR     = 

OBJECT_NAME    = SL-16 R/B
OBJECT_ID      = 2007-029B
CENTER_NAME    = EARTH
REF_FRAME      = TEME
TIME_SYSTEM    = UTC
MEAN_ELEMENT_THEORY = SGP/SGP4

EPOCH          = 2025-10-30T20:16:15.821184
MEAN_MOTION    = 14.14803592
ECCENTRICITY   = .00024396
INCLINATION    = 70.9739
RA_OF_ASC_NODE = 85.3217
ARG_OF_PERICENTER = 261.1401
MEAN_ANOMALY   = 250.8737

EPHEMERIS_TYPE = 0
CLASSIFICATION_TYPE = U
NORAD_CAT_ID   = 31793
ELEMENT_SET_NO = 999
REV_AT_EPOCH   = 94700
BSTAR          = -.606355E-5
MEAN_MOTION_DOT = -.6E-6
MEAN_MOTION_DDOT = 0

CCSDS_OMM_VERS = 2.0
CREATION_DATE  = 
ORIGINATOR     = 

OBJECT_NAME    = KORONAS-FOTON
OBJECT_ID      = 2009-003A
CENTER_NAME    = EARTH
REF_FRAME      = TEME
TIME_SYSTEM    = UTC
MEAN_ELEMENT_THEORY = SGP/SGP4

EPOCH          = 2025-10-30T18:04:57.705888
MEAN_MOTION    = 15.39779646
ECCENTRICITY   = .00106527
INCLINATION    = 82.4322
RA_OF_ASC_NODE = 50.5892
ARG_OF_PERICENTER = 263.0990
MEAN_ANOMALY   = 96.9044

EPHEMERIS_TYPE = 0
CLASSIFICATION_TYPE = U
NORAD_CAT_ID   = 33504
ELEMENT_SET_NO = 999
REV_AT_EPOCH   = 92572
BSTAR          = .4526452E-3
MEAN_MOTION_DOT = .1801E-3
MEAN_MOTION_DDOT = 0

CCSDS_OMM_VERS = 2.0
CREATION_DATE  = 
ORIGINATOR     = 

OBJECT_NAME    = CZ-2C R/B
OBJECT_ID      = 2011-030B
CENTER_NAME    = EARTH
REF_FRAME      = TEME
TIME_SYSTEM    = UTC
MEAN_ELEMENT_THEORY = SGP/SGP4

EPOCH          = 2025-10-30T21:05:48.954912
MEAN_MOTION    = 14.80669301
ECCENTRICITY   = .00544884
INCLINATION    = 97.8337
RA_OF_ASC_NODE = 258.9589
ARG_OF_PERICENTER = 53.8019
MEAN_ANOMALY   = 321.3781

EPHEMERIS_TYPE = 0
CLASSIFICATION_TYPE = U
NORAD_CAT_ID   = 37731
ELEMENT_SET_NO = 999
REV_AT_EPOCH   = 77088
BSTAR          = .32098986E-3
MEAN_MOTION_DOT = .2477E-4
MEAN_MOTION_DDOT = 0

